[{"OBJECT_NAME":"SPARK 2","OBJECT_ID":"2016-081D","EPOCH":"2026-03-09T21:43:21.567936","MEAN_MOTION":14.59036805,"ECCENTRICITY":0.00241409,"INCLINATION":98.5438,"RA_OF_ASC_NODE":55.7698,"ARG_OF_PERICENTER":270.8992,"MEAN_ANOMALY":88.944,"EPHEMERIS_TYPE":0,"CLASSIFICATION_TYPE":"U","NORAD_CAT_ID":41901,"ELEMENT_SET_NO":999,"REV_AT_EPOCH":48964,"BSTAR":0.00022054708,"MEAN_MOTION_DOT":9.9e-6,"MEAN_MOTION_DDOT":0},{"OBJECT_NAME":"NOAA 16 DEB","OBJECT_ID":"2000-055MB","EPOCH":"2026-03-09T15:01:11.122752","MEAN_MOTION":14.60522271,"ECCENTRICITY":0.0019229,"INCLINATION":98.774,"RA_OF_ASC_NODE":209.8168,"ARG_OF_PERICENTER":7.7873,"MEAN_ANOMALY":352.3621,"EPHEMERIS_TYPE":0,"CLASSIFICATION_TYPE":"U","NORAD_CAT_ID":41503,"ELEMENT_SET_NO":999,"REV_AT_EPOCH":52143,"BSTAR":0.0032346,"MEAN_MOTION_DOT":0.00015721,"MEAN_MOTION_DDOT":0}]
